{
  "type": "FeatureCollection",
  "features": [
    {
      "type": "Feature",
      "geometry": {
        "type": "LineString",
        "coordinates": [
          [
            -73.26362058014406,
            11.3461
          ],
          [
            -73.25900214381956,
            11.3385
          ],
          [
            -73.25429811750719,
            11.3312
          ],
          [
            -73.24766386852147,
            11.3156
          ],
          [
            -73.2410778028096,
            11.2998
          ],
          [
            -73.23538015241343,
            11.2845
          ],
          [
            -73.26739314170555,
            11.2794
          ],
          [
            -73.28420895071022,
            11.2738
          ],
          [
            -73.29811608497555,
            11.2689
          ],
          [
            -73.31236976966363,
            11.2612
          ],
          [
            -73.32404803186994,
            11.2545
          ],
          [
            -73.33415826618062,
            11.2389
          ],
          [
            -73.34432536743857,
            11.2234
          ],
          [
            -73.35394870150222,
            11.2089
          ]
        ]
      },
      "properties": {
        "year": 2019,
        "date": "2019-01-26",
        "satellite": "L8",
        "cloud_cover": 5.9,
        "threshold": 0.0,
        "index_type": "MNDWI+NDWI",
        "location": "Dibulla-Palomino, La Guajira, Colombia",
        "length_km": 23.9
      }
    }
  ]
}