{
  "type": "FeatureCollection",
  "features": [
    {
      "type": "Feature",
      "geometry": {
        "type": "LineString",
        "coordinates": [
          [
            -73.2636911905118,
            11.3461
          ],
          [
            -73.25890792736337,
            11.3385
          ],
          [
            -73.25419147196706,
            11.3312
          ],
          [
            -73.24785258228475,
            11.3156
          ],
          [
            -73.2412409329663,
            11.2998
          ],
          [
            -73.23553608119727,
            11.2845
          ],
          [
            -73.26784387463029,
            11.2794
          ],
          [
            -73.28447494819707,
            11.2738
          ],
          [
            -73.29838691228426,
            11.2689
          ],
          [
            -73.3126894111775,
            11.2612
          ],
          [
            -73.32443198660191,
            11.2545
          ],
          [
            -73.33453607493043,
            11.2389
          ],
          [
            -73.34438460919687,
            11.2234
          ],
          [
            -73.35411518087794,
            11.2089
          ]
        ]
      },
      "properties": {
        "year": 2003,
        "date": "2003-12-23",
        "satellite": "L5",
        "cloud_cover": 17.4,
        "threshold": 0.0,
        "index_type": "MNDWI+NDWI",
        "location": "Dibulla-Palomino, La Guajira, Colombia",
        "length_km": 23.91
      }
    }
  ]
}