{
  "type": "FeatureCollection",
  "features": [
    {
      "type": "Feature",
      "geometry": {
        "type": "LineString",
        "coordinates": [
          [
            -73.26373569182992,
            11.3461
          ],
          [
            -73.25896364103285,
            11.3385
          ],
          [
            -73.25423419990643,
            11.3312
          ],
          [
            -73.24782376724525,
            11.3156
          ],
          [
            -73.24107426708639,
            11.2998
          ],
          [
            -73.23543216235302,
            11.2845
          ],
          [
            -73.26769714806217,
            11.2794
          ],
          [
            -73.28422915904956,
            11.2738
          ],
          [
            -73.29830271093641,
            11.2689
          ],
          [
            -73.31261263276053,
            11.2612
          ],
          [
            -73.32415730717744,
            11.2545
          ],
          [
            -73.33433308639547,
            11.2389
          ],
          [
            -73.34439297264728,
            11.2234
          ],
          [
            -73.35401328940286,
            11.2089
          ]
        ]
      },
      "properties": {
        "year": 2012,
        "date": "2012-12-16",
        "satellite": "L7",
        "cloud_cover": 7.8,
        "threshold": 0.0,
        "index_type": "MNDWI+NDWI",
        "location": "Dibulla-Palomino, La Guajira, Colombia",
        "length_km": 23.91
      }
    }
  ]
}