{
  "type": "FeatureCollection",
  "features": [
    {
      "type": "Feature",
      "geometry": {
        "type": "LineString",
        "coordinates": [
          [
            -73.26356366394288,
            11.3461
          ],
          [
            -73.25891036952355,
            11.3385
          ],
          [
            -73.25429437054437,
            11.3312
          ],
          [
            -73.24769853251725,
            11.3156
          ],
          [
            -73.24116781080764,
            11.2998
          ],
          [
            -73.23549356565938,
            11.2845
          ],
          [
            -73.26782079557816,
            11.2794
          ],
          [
            -73.28443800293327,
            11.2738
          ],
          [
            -73.29855633066289,
            11.2689
          ],
          [
            -73.31276506051972,
            11.2612
          ],
          [
            -73.3245493553098,
            11.2545
          ],
          [
            -73.33455001490421,
            11.2389
          ],
          [
            -73.34437527272868,
            11.2234
          ],
          [
            -73.35425117768682,
            11.2089
          ]
        ]
      },
      "properties": {
        "year": 2002,
        "date": "2002-12-17",
        "satellite": "L5",
        "cloud_cover": 7.2,
        "threshold": 0.0,
        "index_type": "MNDWI+NDWI",
        "location": "Dibulla-Palomino, La Guajira, Colombia",
        "length_km": 23.92
      }
    }
  ]
}