{
  "type": "FeatureCollection",
  "features": [
    {
      "type": "Feature",
      "geometry": {
        "type": "LineString",
        "coordinates": [
          [
            -73.26367451862346,
            11.3461
          ],
          [
            -73.25884280623264,
            11.3385
          ],
          [
            -73.25420619139304,
            11.3312
          ],
          [
            -73.24779987749261,
            11.3156
          ],
          [
            -73.24098675440635,
            11.2998
          ],
          [
            -73.23543487277938,
            11.2845
          ],
          [
            -73.26757156420425,
            11.2794
          ],
          [
            -73.28426177913053,
            11.2738
          ],
          [
            -73.29835320961627,
            11.2689
          ],
          [
            -73.31240727695052,
            11.2612
          ],
          [
            -73.32414036689289,
            11.2545
          ],
          [
            -73.33428599591556,
            11.2389
          ],
          [
            -73.34429614183766,
            11.2234
          ],
          [
            -73.35400174966247,
            11.2089
          ]
        ]
      },
      "properties": {
        "year": 2013,
        "date": "2013-03-27",
        "satellite": "L8",
        "cloud_cover": 2.8,
        "threshold": 0.0,
        "index_type": "MNDWI+NDWI",
        "location": "Dibulla-Palomino, La Guajira, Colombia",
        "length_km": 23.9
      }
    }
  ]
}