{
  "type": "FeatureCollection",
  "features": [
    {
      "type": "Feature",
      "geometry": {
        "type": "LineString",
        "coordinates": [
          [
            -73.26370106456181,
            11.3461
          ],
          [
            -73.25889558095899,
            11.3385
          ],
          [
            -73.25417165163505,
            11.3312
          ],
          [
            -73.2477255313112,
            11.3156
          ],
          [
            -73.24096668916252,
            11.2998
          ],
          [
            -73.23537291346652,
            11.2845
          ],
          [
            -73.26751424334537,
            11.2794
          ],
          [
            -73.2842468955277,
            11.2738
          ],
          [
            -73.29816981088194,
            11.2689
          ],
          [
            -73.31243063160622,
            11.2612
          ],
          [
            -73.32422293968034,
            11.2545
          ],
          [
            -73.33424680560393,
            11.2389
          ],
          [
            -73.3442405340776,
            11.2234
          ],
          [
            -73.35408925806885,
            11.2089
          ]
        ]
      },
      "properties": {
        "year": 2014,
        "date": "2014-02-19",
        "satellite": "L8",
        "cloud_cover": 8.4,
        "threshold": 0.0,
        "index_type": "MNDWI+NDWI",
        "location": "Dibulla-Palomino, La Guajira, Colombia",
        "length_km": 23.92
      }
    }
  ]
}