{
  "type": "FeatureCollection",
  "features": [
    {
      "type": "Feature",
      "geometry": {
        "type": "LineString",
        "coordinates": [
          [
            -73.26361651551893,
            11.3461
          ],
          [
            -73.25886492789579,
            11.3385
          ],
          [
            -73.25425350708885,
            11.3312
          ],
          [
            -73.24769488931221,
            11.3156
          ],
          [
            -73.24111435275108,
            11.2998
          ],
          [
            -73.2355879246661,
            11.2845
          ],
          [
            -73.26773756653672,
            11.2794
          ],
          [
            -73.28445766265455,
            11.2738
          ],
          [
            -73.29841906869028,
            11.2689
          ],
          [
            -73.31264404783548,
            11.2612
          ],
          [
            -73.32431417235073,
            11.2545
          ],
          [
            -73.3343613027536,
            11.2389
          ],
          [
            -73.34439619309279,
            11.2234
          ],
          [
            -73.35408250578885,
            11.2089
          ]
        ]
      },
      "properties": {
        "year": 2006,
        "date": "2006-03-03",
        "satellite": "L5",
        "cloud_cover": 12.4,
        "threshold": 0.0,
        "index_type": "MNDWI+NDWI",
        "location": "Dibulla-Palomino, La Guajira, Colombia",
        "length_km": 23.89
      }
    }
  ]
}