{
  "type": "FeatureCollection",
  "features": [
    {
      "type": "Feature",
      "geometry": {
        "type": "LineString",
        "coordinates": [
          [
            -73.26362893529458,
            11.3461
          ],
          [
            -73.25894447599507,
            11.3385
          ],
          [
            -73.2541794664039,
            11.3312
          ],
          [
            -73.247792351939,
            11.3156
          ],
          [
            -73.24105421608132,
            11.2998
          ],
          [
            -73.23528972907731,
            11.2845
          ],
          [
            -73.26740882416439,
            11.2794
          ],
          [
            -73.28413962561045,
            11.2738
          ],
          [
            -73.29818832905131,
            11.2689
          ],
          [
            -73.31237652196096,
            11.2612
          ],
          [
            -73.32410130725714,
            11.2545
          ],
          [
            -73.33424836136926,
            11.2389
          ],
          [
            -73.34418909320354,
            11.2234
          ],
          [
            -73.35406731530924,
            11.2089
          ]
        ]
      },
      "properties": {
        "year": 2021,
        "date": "2021-03-28",
        "satellite": "L9",
        "cloud_cover": 12.1,
        "threshold": 0.0,
        "index_type": "MNDWI+NDWI",
        "location": "Dibulla-Palomino, La Guajira, Colombia",
        "length_km": 23.92
      }
    }
  ]
}