{
  "type": "FeatureCollection",
  "features": [
    {
      "type": "Feature",
      "geometry": {
        "type": "LineString",
        "coordinates": [
          [
            -73.26367582795245,
            11.3461
          ],
          [
            -73.25903871799952,
            11.3385
          ],
          [
            -73.254281078694,
            11.3312
          ],
          [
            -73.24764509886,
            11.3156
          ],
          [
            -73.24092598941373,
            11.2998
          ],
          [
            -73.23532075541803,
            11.2845
          ],
          [
            -73.26744299263066,
            11.2794
          ],
          [
            -73.28410418540382,
            11.2738
          ],
          [
            -73.29824071370086,
            11.2689
          ],
          [
            -73.3124072747811,
            11.2612
          ],
          [
            -73.32417410243893,
            11.2545
          ],
          [
            -73.33425046295254,
            11.2389
          ],
          [
            -73.34416364900251,
            11.2234
          ],
          [
            -73.35397043585978,
            11.2089
          ]
        ]
      },
      "properties": {
        "year": 2018,
        "date": "2018-01-01",
        "satellite": "L8",
        "cloud_cover": 8.5,
        "threshold": 0.0,
        "index_type": "MNDWI+NDWI",
        "location": "Dibulla-Palomino, La Guajira, Colombia",
        "length_km": 23.92
      }
    }
  ]
}