{
  "type": "FeatureCollection",
  "features": [
    {
      "type": "Feature",
      "geometry": {
        "type": "LineString",
        "coordinates": [
          [
            -73.26373804587237,
            11.3461
          ],
          [
            -73.25887784971216,
            11.3385
          ],
          [
            -73.2541725010697,
            11.3312
          ],
          [
            -73.24774755102874,
            11.3156
          ],
          [
            -73.24100407687905,
            11.2998
          ],
          [
            -73.23533802961472,
            11.2845
          ],
          [
            -73.26756201156554,
            11.2794
          ],
          [
            -73.28424358652549,
            11.2738
          ],
          [
            -73.29811886239239,
            11.2689
          ],
          [
            -73.31249897526558,
            11.2612
          ],
          [
            -73.32404566854302,
            11.2545
          ],
          [
            -73.33425020895085,
            11.2389
          ],
          [
            -73.34426323127613,
            11.2234
          ],
          [
            -73.35394432603931,
            11.2089
          ]
        ]
      },
      "properties": {
        "year": 2017,
        "date": "2017-01-15",
        "satellite": "L8",
        "cloud_cover": 7.5,
        "threshold": 0.0,
        "index_type": "MNDWI+NDWI",
        "location": "Dibulla-Palomino, La Guajira, Colombia",
        "length_km": 23.91
      }
    }
  ]
}