{
  "type": "FeatureCollection",
  "features": [
    {
      "type": "Feature",
      "geometry": {
        "type": "LineString",
        "coordinates": [
          [
            -73.26361341523778,
            11.3461
          ],
          [
            -73.25890646913973,
            11.3385
          ],
          [
            -73.25414270917,
            11.3312
          ],
          [
            -73.2477625361425,
            11.3156
          ],
          [
            -73.24110624087986,
            11.2998
          ],
          [
            -73.23545053422333,
            11.2845
          ],
          [
            -73.26774428501152,
            11.2794
          ],
          [
            -73.28444614836165,
            11.2738
          ],
          [
            -73.29846824505513,
            11.2689
          ],
          [
            -73.31262355977277,
            11.2612
          ],
          [
            -73.32449108118696,
            11.2545
          ],
          [
            -73.3345253224028,
            11.2389
          ],
          [
            -73.34442874896659,
            11.2234
          ],
          [
            -73.35415731740144,
            11.2089
          ]
        ]
      },
      "properties": {
        "year": 2004,
        "date": "2004-12-26",
        "satellite": "L5",
        "cloud_cover": 11.6,
        "threshold": 0.0,
        "index_type": "MNDWI+NDWI",
        "location": "Dibulla-Palomino, La Guajira, Colombia",
        "length_km": 23.92
      }
    }
  ]
}