{
  "type": "FeatureCollection",
  "features": [
    {
      "type": "Feature",
      "geometry": {
        "type": "LineString",
        "coordinates": [
          [
            -73.26361030859641,
            11.3461
          ],
          [
            -73.2589179980904,
            11.3385
          ],
          [
            -73.25426521240729,
            11.3312
          ],
          [
            -73.24778445985264,
            11.3156
          ],
          [
            -73.24118441683665,
            11.2998
          ],
          [
            -73.23569230715455,
            11.2845
          ],
          [
            -73.26787296045592,
            11.2794
          ],
          [
            -73.28455063955322,
            11.2738
          ],
          [
            -73.29852822039419,
            11.2689
          ],
          [
            -73.3128125988761,
            11.2612
          ],
          [
            -73.3245285293492,
            11.2545
          ],
          [
            -73.33450009144339,
            11.2389
          ],
          [
            -73.34456870688193,
            11.2234
          ],
          [
            -73.35419637462806,
            11.2089
          ]
        ]
      },
      "properties": {
        "year": 2000,
        "date": "2000-03-02",
        "satellite": "L5",
        "cloud_cover": 17.2,
        "threshold": 0.0,
        "index_type": "MNDWI+NDWI",
        "location": "Dibulla-Palomino, La Guajira, Colombia",
        "length_km": 23.89
      }
    }
  ]
}