{
  "type": "FeatureCollection",
  "features": [
    {
      "type": "Feature",
      "geometry": {
        "type": "LineString",
        "coordinates": [
          [
            -73.26363283122792,
            11.3461
          ],
          [
            -73.25886547173522,
            11.3385
          ],
          [
            -73.25414833892088,
            11.3312
          ],
          [
            -73.2476893408242,
            11.3156
          ],
          [
            -73.24115134403819,
            11.2998
          ],
          [
            -73.23546674657487,
            11.2845
          ],
          [
            -73.26781495691506,
            11.2794
          ],
          [
            -73.28443956035657,
            11.2738
          ],
          [
            -73.29850371208389,
            11.2689
          ],
          [
            -73.31275532551604,
            11.2612
          ],
          [
            -73.32435062544884,
            11.2545
          ],
          [
            -73.33442267067241,
            11.2389
          ],
          [
            -73.34447638710344,
            11.2234
          ],
          [
            -73.3541243445874,
            11.2089
          ]
        ]
      },
      "properties": {
        "year": 2005,
        "date": "2005-03-01",
        "satellite": "L5",
        "cloud_cover": 3.2,
        "threshold": 0.0,
        "index_type": "MNDWI+NDWI",
        "location": "Dibulla-Palomino, La Guajira, Colombia",
        "length_km": 23.91
      }
    }
  ]
}