{
  "type": "FeatureCollection",
  "features": [
    {
      "type": "Feature",
      "geometry": {
        "type": "LineString",
        "coordinates": [
          [
            -73.26368678686646,
            11.3461
          ],
          [
            -73.258948102379,
            11.3385
          ],
          [
            -73.25421400894697,
            11.3312
          ],
          [
            -73.24768186043897,
            11.3156
          ],
          [
            -73.24114602235095,
            11.2998
          ],
          [
            -73.23553804280793,
            11.2845
          ],
          [
            -73.2677106326027,
            11.2794
          ],
          [
            -73.28423334077091,
            11.2738
          ],
          [
            -73.2983961658031,
            11.2689
          ],
          [
            -73.31267505793419,
            11.2612
          ],
          [
            -73.3243475636379,
            11.2545
          ],
          [
            -73.33431752378748,
            11.2389
          ],
          [
            -73.34447178447081,
            11.2234
          ],
          [
            -73.35411170965384,
            11.2089
          ]
        ]
      },
      "properties": {
        "year": 2009,
        "date": "2009-02-21",
        "satellite": "L5",
        "cloud_cover": 16.3,
        "threshold": 0.0,
        "index_type": "MNDWI+NDWI",
        "location": "Dibulla-Palomino, La Guajira, Colombia",
        "length_km": 23.9
      }
    }
  ]
}