{
  "type": "FeatureCollection",
  "features": [
    {
      "type": "Feature",
      "geometry": {
        "type": "LineString",
        "coordinates": [
          [
            -73.26362335576009,
            11.3461
          ],
          [
            -73.25885965217171,
            11.3385
          ],
          [
            -73.25418797861221,
            11.3312
          ],
          [
            -73.24764133311224,
            11.3156
          ],
          [
            -73.24101307012093,
            11.2998
          ],
          [
            -73.23537205683999,
            11.2845
          ],
          [
            -73.26748332052429,
            11.2794
          ],
          [
            -73.28411944735878,
            11.2738
          ],
          [
            -73.29818853607566,
            11.2689
          ],
          [
            -73.31238038143547,
            11.2612
          ],
          [
            -73.32418952703475,
            11.2545
          ],
          [
            -73.3343388768258,
            11.2389
          ],
          [
            -73.34424869262335,
            11.2234
          ],
          [
            -73.3539652183785,
            11.2089
          ]
        ]
      },
      "properties": {
        "year": 2015,
        "date": "2015-12-21",
        "satellite": "L8",
        "cloud_cover": 12.4,
        "threshold": 0.0,
        "index_type": "MNDWI+NDWI",
        "location": "Dibulla-Palomino, La Guajira, Colombia",
        "length_km": 23.91
      }
    }
  ]
}