{
  "type": "FeatureCollection",
  "features": [
    {
      "type": "Feature",
      "geometry": {
        "type": "LineString",
        "coordinates": [
          [
            -73.26369445873055,
            11.3461
          ],
          [
            -73.25892727772997,
            11.3385
          ],
          [
            -73.25423109434836,
            11.3312
          ],
          [
            -73.24763706374264,
            11.3156
          ],
          [
            -73.24097846805412,
            11.2998
          ],
          [
            -73.23534086079815,
            11.2845
          ],
          [
            -73.26752734159541,
            11.2794
          ],
          [
            -73.28413176753732,
            11.2738
          ],
          [
            -73.29817485872204,
            11.2689
          ],
          [
            -73.31221458538833,
            11.2612
          ],
          [
            -73.32403256497658,
            11.2545
          ],
          [
            -73.33420925122498,
            11.2389
          ],
          [
            -73.3441008693994,
            11.2234
          ],
          [
            -73.35399145059876,
            11.2089
          ]
        ]
      },
      "properties": {
        "year": 2022,
        "date": "2022-02-15",
        "satellite": "L9",
        "cloud_cover": 10.7,
        "threshold": 0.0,
        "index_type": "MNDWI+NDWI",
        "location": "Dibulla-Palomino, La Guajira, Colombia",
        "length_km": 23.91
      }
    }
  ]
}