{
  "type": "FeatureCollection",
  "features": [
    {
      "type": "Feature",
      "geometry": {
        "type": "LineString",
        "coordinates": [
          [
            -73.2637159279078,
            11.3461
          ],
          [
            -73.25895125463806,
            11.3385
          ],
          [
            -73.25430327822147,
            11.3312
          ],
          [
            -73.2477644054221,
            11.3156
          ],
          [
            -73.24085413727994,
            11.2998
          ],
          [
            -73.23527930833491,
            11.2845
          ],
          [
            -73.2673786665788,
            11.2794
          ],
          [
            -73.28401024628803,
            11.2738
          ],
          [
            -73.29802670081115,
            11.2689
          ],
          [
            -73.31222410048025,
            11.2612
          ],
          [
            -73.32402150598806,
            11.2545
          ],
          [
            -73.33405345217501,
            11.2389
          ],
          [
            -73.34417478097096,
            11.2234
          ],
          [
            -73.3539499194299,
            11.2089
          ]
        ]
      },
      "properties": {
        "year": 2024,
        "date": "2024-03-06",
        "satellite": "L9",
        "cloud_cover": 13.7,
        "threshold": 0.0,
        "index_type": "MNDWI+NDWI",
        "location": "Dibulla-Palomino, La Guajira, Colombia",
        "length_km": 23.92
      }
    }
  ]
}