{
  "type": "FeatureCollection",
  "features": [
    {
      "type": "Feature",
      "geometry": {
        "type": "LineString",
        "coordinates": [
          [
            -73.26366768785543,
            11.3461
          ],
          [
            -73.25904175204512,
            11.3385
          ],
          [
            -73.25418325848548,
            11.3312
          ],
          [
            -73.24778624159813,
            11.3156
          ],
          [
            -73.24090222823723,
            11.2998
          ],
          [
            -73.23539704046136,
            11.2845
          ],
          [
            -73.26739814918695,
            11.2794
          ],
          [
            -73.2840979867133,
            11.2738
          ],
          [
            -73.29816684019788,
            11.2689
          ],
          [
            -73.31232961704231,
            11.2612
          ],
          [
            -73.3240269390599,
            11.2545
          ],
          [
            -73.33407520458879,
            11.2389
          ],
          [
            -73.34415795539128,
            11.2234
          ],
          [
            -73.35405923608506,
            11.2089
          ]
        ]
      },
      "properties": {
        "year": 2020,
        "date": "2020-01-22",
        "satellite": "L8",
        "cloud_cover": 14.3,
        "threshold": 0.0,
        "index_type": "MNDWI+NDWI",
        "location": "Dibulla-Palomino, La Guajira, Colombia",
        "length_km": 23.91
      }
    }
  ]
}