{
  "type": "FeatureCollection",
  "features": [
    {
      "type": "Feature",
      "geometry": {
        "type": "LineString",
        "coordinates": [
          [
            -73.26358729473263,
            11.3461
          ],
          [
            -73.25882070190598,
            11.3385
          ],
          [
            -73.25411784170174,
            11.3312
          ],
          [
            -73.24780161424427,
            11.3156
          ],
          [
            -73.24112899527746,
            11.2998
          ],
          [
            -73.23555829623028,
            11.2845
          ],
          [
            -73.26773730087267,
            11.2794
          ],
          [
            -73.28446214554383,
            11.2738
          ],
          [
            -73.29842645021492,
            11.2689
          ],
          [
            -73.31274376793688,
            11.2612
          ],
          [
            -73.3245248491726,
            11.2545
          ],
          [
            -73.33440658560879,
            11.2389
          ],
          [
            -73.34451298597904,
            11.2234
          ],
          [
            -73.3542566879507,
            11.2089
          ]
        ]
      },
      "properties": {
        "year": 2001,
        "date": "2001-12-12",
        "satellite": "L5",
        "cloud_cover": 14.9,
        "threshold": 0.0,
        "index_type": "MNDWI+NDWI",
        "location": "Dibulla-Palomino, La Guajira, Colombia",
        "length_km": 23.91
      }
    }
  ]
}