{
  "type": "FeatureCollection",
  "features": [
    {
      "type": "Feature",
      "geometry": {
        "type": "LineString",
        "coordinates": [
          [
            -73.2637287805811,
            11.3461
          ],
          [
            -73.25894907536758,
            11.3385
          ],
          [
            -73.2543404717558,
            11.3312
          ],
          [
            -73.24773173085869,
            11.3156
          ],
          [
            -73.24092998343815,
            11.2998
          ],
          [
            -73.23519068817379,
            11.2845
          ],
          [
            -73.26743429813723,
            11.2794
          ],
          [
            -73.2841457396835,
            11.2738
          ],
          [
            -73.29815202806955,
            11.2689
          ],
          [
            -73.31228476094691,
            11.2612
          ],
          [
            -73.32398349395167,
            11.2545
          ],
          [
            -73.33420797371042,
            11.2389
          ],
          [
            -73.34418278549148,
            11.2234
          ],
          [
            -73.35394508636828,
            11.2089
          ]
        ]
      },
      "properties": {
        "year": 2023,
        "date": "2023-03-23",
        "satellite": "L9",
        "cloud_cover": 17.5,
        "threshold": 0.0,
        "index_type": "MNDWI+NDWI",
        "location": "Dibulla-Palomino, La Guajira, Colombia",
        "length_km": 23.93
      }
    }
  ]
}