{
  "type": "FeatureCollection",
  "features": [
    {
      "type": "Feature",
      "geometry": {
        "type": "LineString",
        "coordinates": [
          [
            -73.26355864511616,
            11.3461
          ],
          [
            -73.25897713611317,
            11.3385
          ],
          [
            -73.25427380860002,
            11.3312
          ],
          [
            -73.24783044798654,
            11.3156
          ],
          [
            -73.24106929937639,
            11.2998
          ],
          [
            -73.2354843276535,
            11.2845
          ],
          [
            -73.26757300333749,
            11.2794
          ],
          [
            -73.28430121710966,
            11.2738
          ],
          [
            -73.29845316591359,
            11.2689
          ],
          [
            -73.31257749468102,
            11.2612
          ],
          [
            -73.32424524560436,
            11.2545
          ],
          [
            -73.33442501334808,
            11.2389
          ],
          [
            -73.34439351336269,
            11.2234
          ],
          [
            -73.35421188332198,
            11.2089
          ]
        ]
      },
      "properties": {
        "year": 2008,
        "date": "2008-01-18",
        "satellite": "L5",
        "cloud_cover": 16.0,
        "threshold": 0.0,
        "index_type": "MNDWI+NDWI",
        "location": "Dibulla-Palomino, La Guajira, Colombia",
        "length_km": 23.9
      }
    }
  ]
}