{
  "type": "FeatureCollection",
  "features": [
    {
      "type": "Feature",
      "geometry": {
        "type": "LineString",
        "coordinates": [
          [
            -73.26369153207271,
            11.3461
          ],
          [
            -73.25884876024043,
            11.3385
          ],
          [
            -73.25414759905632,
            11.3312
          ],
          [
            -73.2477273763974,
            11.3156
          ],
          [
            -73.24106862486103,
            11.2998
          ],
          [
            -73.23557113392225,
            11.2845
          ],
          [
            -73.26765622478999,
            11.2794
          ],
          [
            -73.2844483046328,
            11.2738
          ],
          [
            -73.29841795057072,
            11.2689
          ],
          [
            -73.31260108954272,
            11.2612
          ],
          [
            -73.32428230507554,
            11.2545
          ],
          [
            -73.33435731759789,
            11.2389
          ],
          [
            -73.3443727327403,
            11.2234
          ],
          [
            -73.35412964709175,
            11.2089
          ]
        ]
      },
      "properties": {
        "year": 2007,
        "date": "2007-01-25",
        "satellite": "L5",
        "cloud_cover": 12.6,
        "threshold": 0.0,
        "index_type": "MNDWI+NDWI",
        "location": "Dibulla-Palomino, La Guajira, Colombia",
        "length_km": 23.9
      }
    }
  ]
}