{
  "type": "FeatureCollection",
  "features": [
    {
      "type": "Feature",
      "geometry": {
        "type": "LineString",
        "coordinates": [
          [
            -73.2637179795002,
            11.3461
          ],
          [
            -73.25898652595886,
            11.3385
          ],
          [
            -73.25430061294749,
            11.3312
          ],
          [
            -73.24769724617036,
            11.3156
          ],
          [
            -73.24115258988047,
            11.2998
          ],
          [
            -73.23552251299328,
            11.2845
          ],
          [
            -73.26771717613624,
            11.2794
          ],
          [
            -73.28436214798862,
            11.2738
          ],
          [
            -73.29835589682725,
            11.2689
          ],
          [
            -73.31247914158824,
            11.2612
          ],
          [
            -73.32424739078051,
            11.2545
          ],
          [
            -73.3342671471658,
            11.2389
          ],
          [
            -73.34430999896459,
            11.2234
          ],
          [
            -73.35405837604662,
            11.2089
          ]
        ]
      },
      "properties": {
        "year": 2010,
        "date": "2010-01-16",
        "satellite": "L5",
        "cloud_cover": 9.3,
        "threshold": 0.0,
        "index_type": "MNDWI+NDWI",
        "location": "Dibulla-Palomino, La Guajira, Colombia",
        "length_km": 23.9
      }
    }
  ]
}