{
  "type": "FeatureCollection",
  "features": [
    {
      "type": "Feature",
      "geometry": {
        "type": "LineString",
        "coordinates": [
          [
            -73.26362571236179,
            11.3461
          ],
          [
            -73.258849631328,
            11.3385
          ],
          [
            -73.25416327114257,
            11.3312
          ],
          [
            -73.24775094019418,
            11.3156
          ],
          [
            -73.24095174788486,
            11.2998
          ],
          [
            -73.23535049000995,
            11.2845
          ],
          [
            -73.26758390381933,
            11.2794
          ],
          [
            -73.2842207413332,
            11.2738
          ],
          [
            -73.29815599217498,
            11.2689
          ],
          [
            -73.31247552106059,
            11.2612
          ],
          [
            -73.32407828357135,
            11.2545
          ],
          [
            -73.3341509026845,
            11.2389
          ],
          [
            -73.34421871549239,
            11.2234
          ],
          [
            -73.3539782328817,
            11.2089
          ]
        ]
      },
      "properties": {
        "year": 2016,
        "date": "2016-03-18",
        "satellite": "L8",
        "cloud_cover": 16.0,
        "threshold": 0.0,
        "index_type": "MNDWI+NDWI",
        "location": "Dibulla-Palomino, La Guajira, Colombia",
        "length_km": 23.91
      }
    }
  ]
}