{
  "type": "FeatureCollection",
  "features": [
    {
      "type": "Feature",
      "geometry": {
        "type": "LineString",
        "coordinates": [
          [
            -73.26364671784805,
            11.3461
          ],
          [
            -73.25895787100379,
            11.3385
          ],
          [
            -73.25424729595004,
            11.3312
          ],
          [
            -73.24775095712342,
            11.3156
          ],
          [
            -73.24105837268675,
            11.2998
          ],
          [
            -73.23535271075941,
            11.2845
          ],
          [
            -73.26759331522396,
            11.2794
          ],
          [
            -73.28421297803455,
            11.2738
          ],
          [
            -73.29833697504722,
            11.2689
          ],
          [
            -73.31257086309434,
            11.2612
          ],
          [
            -73.3242514977762,
            11.2545
          ],
          [
            -73.33426029286007,
            11.2389
          ],
          [
            -73.3443066853421,
            11.2234
          ],
          [
            -73.35405710533118,
            11.2089
          ]
        ]
      },
      "properties": {
        "year": 2011,
        "date": "2011-01-26",
        "satellite": "L5",
        "cloud_cover": 6.9,
        "threshold": 0.0,
        "index_type": "MNDWI+NDWI",
        "location": "Dibulla-Palomino, La Guajira, Colombia",
        "length_km": 23.92
      }
    }
  ]
}